#cP2019  4 16  0  0  0.00000000      96   u+U IGb08 FIT  WHU
## 2049 172800.00000000   900.00000000 58589     0.000000000
+  107   G01G02G03G05G06G07G08G09G10G11G12G13G14G15G16G17G18
+        G19G20G21G22G23G24G25G26G27G28G29G30G31G32R01R02R03
+        R04R05R07R08R09R10R11R13R14R15R16R17R18R19R20R21R22
+        R23R24E01E02E03E04E05E07E08E09E11E12E14E18E19E21E24
+        E25E26E27E30E33E36C01C02C03C04C05C06C07C08C09C10C11
+        C12C13C14C16C18C19C21C23C24C25C26C27C29C30C32C34C35
+        C36C37J01J02J03  0  0  0  0  0  0  0  0  0  0  0  0
+          0  0  0  0  0  0  0  0  0  0  0  0  0  0  0  0  0
+          0  0  0  0  0  0  0  0  0  0  0  0  0  0  0  0  0
+          0  0  0  0  0  0  0  0  0  0  0  0  0  0  0  0  0
++         3  3  3  3  3  3  4  3  3  3  3  3  3  3  3  3  3
++         3  3  4  3  3  3  3  3  4  3  5  3  3  3  3  3  3
++         3  3  3  3  4  3  3  3  3  3  3  4  4  4  4  4  4
++         3  3  9  9  9  9  9  9  9  9  9  9  0 10  9  9  9
++         9  9  9  9  9  9 10 10 10  0 10  9  9 10  9 10 10
++        10 10 10  9 10 10 10 10 10 10  9 10 10 10  0  0  0
++         0 10 10  9  9  0  0  0  0  0  0  0  0  0  0  0  0
++         0  0  0  0  0  0  0  0  0  0  0  0  0  0  0  0  0
++         0  0  0  0  0  0  0  0  0  0  0  0  0  0  0  0  0
++         0  0  0  0  0  0  0  0  0  0  0  0  0  0  0  0  0
%c M  cc GPS ccc cccc cccc cccc cccc ccccc ccccc ccccc ccccc
%c cc cc ccc ccc cccc cccc cccc cccc ccccc ccccc ccccc ccccc
%f  1.2500000  1.025000000  0.00000000000  0.000000000000000
%f  0.0000000  0.000000000  0.00000000000  0.000000000000000
%i    0    0    0    0      0      0      0      0         0
%i    0    0    0    0      0      0      0      0         0
/* GNSS RESEARCH CENTER, WUHAN UNIVERSITY (WHU), P. R. CHINA
/* POSITION AND NAVIGATION DATA ANALYST (PANDA) SOFTWARE    
/* PCV:IGS08_2047 OL/AL:FES2004  NONE     NN ORB:CoM CLK:CoN
/*
*  2019  4 16 10 30  0.00000000
PG01 -15292.891503    153.867263  21573.194874   -202.981683
PG02  14350.117499  20645.475711  -8199.034944   -190.345982
PG03 -20838.515524   8392.659436  14068.364210    188.240559
PG05  12142.434462   9680.139295 -21668.055012      1.115506
PG06   6610.318500  25595.802223   2405.063580    229.433669
PG07  -9718.861633  14891.986844 -19322.598213     -5.880562
PG08 -26080.179042  -5573.655979   -471.388751   -140.120022
PG09 -16317.129434  10077.544535 -18422.240845    427.894316
PG10   7980.936582 -21928.201513  12561.823547     71.470761
PG11 -20088.027899  -2576.060475  16534.032683   -625.461266
PG12  20929.553615  -6717.226966  14564.478772    250.798634
PG13  22007.726863  13019.894566  -7376.000616    -67.579958
PG14  -9672.322482 -16569.270432  18760.194502    -84.280923
PG15  26620.945386   2735.935135    597.589236   -318.106392
PG16 -12028.262629  -8943.209591 -22138.944451    -33.060710
PG17    -25.612993  15251.262393  22161.536427     39.876819
PG18 -16971.344198  -9844.671570  17480.742046     44.678000
PG19   8880.424793  16081.827025  18850.248337   -330.057007
PG20  13584.983520 -22567.173859   2623.502479    524.006420
PG21   4791.960055 -19888.041960 -16215.285946   -211.341794
PG22 -18898.604313   1183.451361  18836.823779   -684.623805
PG23 -24838.605780   2082.770171  -9407.819367   -190.000341
PG24  16990.008163   3420.622365  20053.038730    -64.855614
PG25  19665.477670 -17008.724343   4492.322670   -746.191279
PG26  -3582.017911 -17375.914525 -19730.736992    177.359001
PG27 -21199.653284 -12055.517960 -10981.343336   -109.685003
PG28 -10362.433350  21221.429079  12851.907560    767.472783
PG29  20641.317730  -5120.596751 -15943.354375    224.190035
PG30  -2352.857174  23621.548022 -11702.665518    -87.493568
PG31  -6767.960840 -25415.858829    852.627914     44.686486
PG32  -3797.186596 -15897.457237  21009.140418   -130.168661
PR01 -18833.999468  -1645.315058  17121.358726     42.397199
PR02 -23686.607575   9392.260530  -1630.788066    363.960892
PR03 -12942.871570  13517.579176 -17311.375995     -6.233888
PR04   5876.106420   9477.195926 -22920.394335    302.659632
PR05  20257.434134    313.281398 -15471.827902     26.248203
PR07  12378.072793 -13519.832831  17759.648756    -18.373792
PR08  -5120.175199  -9817.668479  23035.530877     18.193395
PR09  11376.319796 -14319.653993  17823.165404     64.735491
PR10   6701.312828 -24231.890504   4523.917929     47.767463
PR11  -2636.833064 -21642.275960 -13269.743228    -63.138225
PR13 -11214.065983  12849.420319 -18989.978281    -22.514216
PR14  -6501.384594  24254.757918  -4446.136645     37.976701
PR15   2100.005705  22075.328233  12625.816923    101.358372
PR16   9798.023726   7077.881017  22449.658308     10.174010
PR17  -1222.904125  12357.336726  22296.787744    220.693598
PR18  13145.817255  18257.817438  11973.966475    -10.175257
PR19  20135.335575  14866.317276  -4904.677378    -25.778405
PR20  15284.508295   1358.939067 -20349.433050   -375.124652
PR21    648.268774 -12634.225763 -22143.963492    -42.717915
PR22 -14955.765764 -18422.914208  -9527.748486    -14.715687
PR23 -20466.007294 -11593.910854   9875.761291    222.069124
PR24 -14332.101755    260.639307  21083.110320   -179.405970
PE01 -14313.445386  -7967.329879 -24659.820539   -584.863129
PE02  14326.802283   7922.963445  24653.807136     56.161572
PE03  25694.036240   6024.430456 -13413.019356   -155.805175
PE04 -28336.817923   7234.856436  -4562.183443   -262.503376
PE05   7955.374287  15869.529459 -23680.635146     73.213350
PE07  14346.284401 -16390.814389  20057.695488   -169.723506
PE08  28252.517033  -7513.237133   4688.092703   6371.411697
PE09 -14196.414188  16382.678784 -20139.555410   6467.887557
PE11  -3494.020488  19281.410758  22177.530367   5706.456847
PE12 -18420.314012   1620.902313  23127.083263   6441.996114
PE14 -18817.839142 -18695.256602 -15685.458763   -531.256191
PE18  24770.045197   9085.436473   1896.398575   -630.217747
PE19 -24496.809659  -7141.993612  15014.050004     -7.032692
PE21  -1444.312839 -24848.824726 -16029.577345   -529.332242
PE24 -12150.223964  26953.746519  -1640.370342   6129.835684
PE25   1397.459950  24875.891876  15978.850748   1832.990515
PE26 -13034.591963 -25277.659342  -8205.436611   4676.297193
PE27  12199.885858 -26892.105976   2017.207742    488.885033
PE30  18741.855145 -13367.875722  18586.661240   4946.994697
PE33 -22267.875616 -16349.805550  10659.482220   -470.620415
PE36  13283.236013  25128.518521   8251.553780    723.589872
PC01 -32313.955050  27069.355561    536.345001    466.094525
PC02   4360.008403  41953.981146     45.846515    217.148007
PC03 -14837.221596  39450.511838    575.290128    139.791313
PC04 -39634.795413  14384.362087    438.210324   -145.315944
PC05  21874.801507  36027.145559   -227.555290   -244.855850
PC06 -19484.539383  20622.116254 -30973.542607    688.981513
PC07 -20644.834552  36419.935191   2023.966491   -303.243559
PC08  -5950.029602  29414.047574  29823.544164    146.123035
PC09  -1282.293464  24411.174368 -34141.592641    690.091155
PC10  -9840.403482  38128.280248  14660.676357   -668.535926
PC11  25025.222775   6534.137332 -10491.073575   -104.363612
PC12  13425.774243  19202.987301  15278.238917    582.750496
PC13   5064.635190  37643.020487  18618.178046   -656.180355
PC14  19482.277396   4224.183249 -19442.063048    677.056006
PC16 -13402.587463  22216.539855 -33234.522666   -563.673111
PC18  -7764.827183  40741.179222   6371.818520    -36.610158
PC19 -25009.988677  11611.524371   4276.261656     84.163049
PC21   3620.946854  16129.027255 -22455.297291    451.520746
PC23   7044.431814 -25121.251671   9906.826844   -594.901868
PC24  14398.269151  12378.768864  20446.378323   -658.415194
PC25  14912.609592  -9649.241395  21514.846745   -185.490901
PC26   6139.675392  26082.150802   7840.862316    207.146475
PC27 -12879.995078 -19700.234946 -15022.778949     99.438648
PC29 -21763.163909   1955.361133  17358.272996     50.521887
PC30 -25001.147572 -12338.832636   1490.106694    106.890133
PC32  -3793.232373 -16117.950642  22484.310862   -655.839503
PC34  24971.884700  12309.975162  -1664.379999    279.427738
PC35  -5984.207425  14883.439200  22837.645312    176.698940
PC36 -15150.093073   9147.809284 -21554.783796   -275.257932
PC37  -5238.393644 -26386.072548  -7395.360882    -54.307647
PJ01 -34452.287654  23524.549296  -1496.075419   -323.677509
PJ02 -20692.730413  31213.396433 -15054.528799      1.514678
PJ03 -28854.482446  22858.725553  25644.807410     -0.313091
EOF
